HAWK-A                  
1 43765U 18099H   26068.67628545  .00008617  00000+0  36104-3 0  9995
2 43765  97.4051 122.2425 0034260 275.5523  84.1807 15.23231043397949
STARLINK-34040          
1 63839U 25093D   26068.43189080  .00028192  00000+0  10300-2 0  9990
2 63839  43.0021  79.2819 0001168 264.7212  95.3506 15.27581833 47931
